GLOBALSTAR M067         
1 32263U 07048A   25252.92822068 -.00000039  00000+0  43579-3 0  9991
2 32263  51.9719 147.9721 0001099 126.1640 313.3130 12.40677455820005
GLOBALSTAR M070         
1 32264U 07048B   25252.40458356 -.00000106  00000+0 -10753-4 0  9995
2 32264  51.9729 231.9422 0000340  31.9458 125.9543 12.62322407824307
GLOBALSTAR M066         
1 32265U 07048C   25252.89735688 -.00000004  00000+0  76712-3 0  9997
2 32265  51.9580 142.5393 0004465 165.6650 291.6584 12.30376757825723
GLOBALSTAR M068         
1 32266U 07048D   25252.15259541 -.00000095  00000+0  49021-4 0  9990
2 32266  51.9893  46.2990 0000793  13.4839 159.7590 12.62827948828163
GLOBALSTAR M079         
1 37188U 10054A   25252.45163848 -.00000110  00000+0 -36435-4 0  9990
2 37188  52.0017 243.2730 0000532  96.3598  69.1319 12.62266595687098
GLOBALSTAR M074         
1 37189U 10054B   25252.48037591 -.00000113  00000+0 -50452-4 0  9997
2 37189  51.9996 242.4962 0000229 100.9821  74.0874 12.62271315687700
GLOBALSTAR M076         
1 37190U 10054C   25252.50180311 -.00000102  00000+0  85045-5 0  9995
2 37190  52.0016 242.6095 0000433 118.4840  34.0231 12.62265169687420
GLOBALSTAR M077         
1 37191U 10054D   25252.13880203 -.00000106  00000+0 -13964-4 0  9997
2 37191  52.0057 200.5794 0000432  64.0238 307.7209 12.62323177687756
